KAITUO 1B               
1 40912U 15049P   17264.87663492  .00001995  00000-0  10147-3 0  9990
2 40912  97.4519 271.1484 0014149 221.5155 257.7283 15.17929589110956
TIANWANG 1C (TW-1C)     
1 40926U 15051B   17264.86930650  .00009262  00000-0  20291-3 0  9996
2 40926  97.2205 303.7221 0011937 167.7583 282.3032 15.44246517111837
TIANWANG 1B (TW-1B)     
1 40927U 15051C   17264.88611374  .00009002  00000-0  20496-3 0  9997
2 40927  97.2298 303.7103 0011317 177.5985 308.0583 15.43114736111772
TIANWANG 1A (TW-1A)     
1 40928U 15051D   17264.87581281  .00004118  00000-0  11642-3 0  9996
2 40928  97.2186 298.9485 0011427 202.9106 282.9578 15.36831550111548
LAPAN-A2 (IO-86)        
1 40931U 15052B   17264.70097775  .00000724  00000-0  11913-4 0  9994
2 40931   5.9971 264.5367 0012596 171.9806 188.0583 14.76543284107250
LQSAT                   
1 40958U 15057A   17264.84561590  .00000040  00000-0  13971-4 0  9991
2 40958  97.9711 338.4424 0019537 114.3313 245.9928 14.72986167105344
CHUBUSAT-2              
1 41338U 16012B   17264.25781077  .00000445  00000-0  28196-4 0  9999
2 41338  31.0028 222.0848 0013973 290.1210  69.7922 14.99806874 87421
CHUBUSAT-3              
1 41339U 16012C   17264.23955333  .00000541  00000-0  35622-4 0  9995
2 41339  31.0102 221.1940 0013862 296.2140  63.7063 15.00007988 87404
OUFTI-1                 
1 41458U 16025C   17264.62282302  .00001210  00000-0  68700-4 0  9990
2 41458  98.1777 307.7056 0172107 327.7666  31.3092 15.03601057 77073
E-ST@R-II               
1 41459U 16025D   17264.58812843  .00002225  00000-0  12268-3 0  9999
2 41459  98.1773 307.5978 0172466 328.2530  30.8379 15.03419284 77054
AAUSAT 4                
1 41460U 16025E   17264.85748674  .00003156  00000-0  17154-3 0  9994
2 41460  98.1700 308.0487 0164579 325.1468  33.8971 15.04460475 77127
NUSAT 1 (LO-87)         
1 41557U 16033B   17264.85512402  .00001703  00000-0  66135-4 0  9998
2 41557  97.4580 344.3619 0014870  32.2640 327.9505 15.27399110 73182
BEESAT-4                
1 41619U 16040W   17264.64311573  .00001849  00000-0  86065-4 0  9993
2 41619  97.4531 326.0686 0013642  91.8870 268.3928 15.21124028 57255
PRATHAM                 
1 41783U 16059A   17264.60556813  .00000086  00000-0  26113-4 0  9999
2 41783  98.1575 324.9336 0032899 216.6773 143.2176 14.62860268 52692
ALSAT 1N                
1 41789U 16059G   17264.85595803  .00000132  00000-0  34352-4 0  9990
2 41789  98.1579 325.8713 0027641 208.5870 151.3807 14.64077338 52756
NAYIF-1 (EO-88)         
1 42017U 17008BX  17264.61333149  .00001870  00000-0  81682-4 0  9995
2 42017  97.4858 325.8533 0005245 233.9432 126.1319 15.23370011 33167
LILACSAT-1              
1 42725U 98067ME  17264.41716238  .00013512  00000-0  18491-3 0  9990
2 42725  51.6383 277.0470 0006128 322.8956  37.1612 15.57725746 18487
MAX VALIER SAT          
1 42778U 17036P   17264.63214326  .00001279  00000-0  61494-4 0  9999
2 42778  97.4424 323.3001 0011247 292.3063  67.6979 15.20583699 13682
